{
    "week": 295,
    "satellites": [
        {
            "Name": "BEIDOU-2 G6 (C02)",
            "Line1": "1 38953U 12059A   24339.53511723 -.00000155  00000+0  00000+0 0  9993",
            "Line2": "2 38953   2.9940  79.1116 0007506 290.4849 340.9504  1.00271642 44290",
            "SatelliteNumber": "38953",
            "Classification": "U",
            "LaunchYear": "12",
            "LaunchNumber": "059",
            "PieceOfLaunch": "A",
            "EpochYear": "24",
            "EpochDay": 339.53511723,
            "FirstDerivativeMeanMotion": -1.55e-06,
            "SecondDerivativeMeanMotion": "00000+0",
            "BSTAR": "00000+0",
            "SetNumber": "999",
            "Inclination": 2.994,
            "RAAN": 79.1116,
            "Eccentricity": 0.0007506,
            "ArgumentOfPerigee": 290.4849,
            "MeanAnomaly": 340.9504,
            "MeanMotion": 1.00271642,
            "RevolutionNumber": "4429"
        },
        {
            "Name": "BEIDOU-3S IGSO-1S (C31)",
            "Line1": "1 40549U 15019A   24336.84526388 -.00000183  00000+0  00000+0 0  9991",
            "Line2": "2 40549  50.2637 302.2047 0034952 198.9368 330.8121  1.00267302 35436",
            "SatelliteNumber": "40549",
            "Classification": "U",
            "LaunchYear": "15",
            "LaunchNumber": "019",
            "PieceOfLaunch": "A",
            "EpochYear": "24",
            "EpochDay": 336.84526388,
            "FirstDerivativeMeanMotion": -1.83e-06,
            "SecondDerivativeMeanMotion": "00000+0",
            "BSTAR": "00000+0",
            "SetNumber": "999",
            "Inclination": 50.2637,
            "RAAN": 302.2047,
            "Eccentricity": 0.0034952,
            "ArgumentOfPerigee": 198.9368,
            "MeanAnomaly": 330.8121,
            "MeanMotion": 1.00267302,
            "RevolutionNumber": "3543"
        },
        {
            "Name": "BEIDOU-3S M2S (C58)",
            "Line1": "1 40748U 15037A   24339.27775989 -.00000049  00000+0  00000+0 0  9996",
            "Line2": "2 40748  55.3509 321.2436 0012941 261.9343  97.9185  1.86229062 63697",
            "SatelliteNumber": "40748",
            "Classification": "U",
            "LaunchYear": "15",
            "LaunchNumber": "037",
            "PieceOfLaunch": "A",
            "EpochYear": "24",
            "EpochDay": 339.27775989,
            "FirstDerivativeMeanMotion": -4.9e-07,
            "SecondDerivativeMeanMotion": "00000+0",
            "BSTAR": "00000+0",
            "SetNumber": "999",
            "Inclination": 55.3509,
            "RAAN": 321.2436,
            "Eccentricity": 0.0012941,
            "ArgumentOfPerigee": 261.9343,
            "MeanAnomaly": 97.9185,
            "MeanMotion": 1.86229062,
            "RevolutionNumber": "6369"
        },
        {
            "Name": "BEIDOU-3S M1S (C57)",
            "Line1": "1 40749U 15037B   24338.47716536 -.00000052  00000+0  00000+0 0  9995",
            "Line2": "2 40749  55.3541 321.2575 0004387 323.2284  36.7405  1.86227543 63686",
            "SatelliteNumber": "40749",
            "Classification": "U",
            "LaunchYear": "15",
            "LaunchNumber": "037",
            "PieceOfLaunch": "B",
            "EpochYear": "24",
            "EpochDay": 338.47716536,
            "FirstDerivativeMeanMotion": -5.2e-07,
            "SecondDerivativeMeanMotion": "00000+0",
            "BSTAR": "00000+0",
            "SetNumber": "999",
            "Inclination": 55.3541,
            "RAAN": 321.2575,
            "Eccentricity": 0.0004387,
            "ArgumentOfPerigee": 323.2284,
            "MeanAnomaly": 36.7405,
            "MeanMotion": 1.86227543,
            "RevolutionNumber": "6368"
        },
        {
            "Name": "BEIDOU-3S IGSO-2S (C56)",
            "Line1": "1 40938U 15053A   24338.76230019 -.00000127  00000+0  00000+0 0  9995",
            "Line2": "2 40938  50.0954 265.4232 0051553 189.2275 349.1881  1.00267224 33730",
            "SatelliteNumber": "40938",
            "Classification": "U",
            "LaunchYear": "15",
            "LaunchNumber": "053",
            "PieceOfLaunch": "A",
            "EpochYear": "24",
            "EpochDay": 338.76230019,
            "FirstDerivativeMeanMotion": -1.27e-06,
            "SecondDerivativeMeanMotion": "00000+0",
            "BSTAR": "00000+0",
            "SetNumber": "999",
            "Inclination": 50.0954,
            "RAAN": 265.4232,
            "Eccentricity": 0.0051553,
            "ArgumentOfPerigee": 189.2275,
            "MeanAnomaly": 349.1881,
            "MeanMotion": 1.00267224,
            "RevolutionNumber": "3373"
        },
        {
            "Name": "BEIDOU-2 IGSO-6 (C13)",
            "Line1": "1 41434U 16021A   24338.90583572 -.00000159  00000+0  00000+0 0  9999",
            "Line2": "2 41434  59.4280  43.6454 0055310 225.6564 226.7405  1.00281914 31866",
            "SatelliteNumber": "41434",
            "Classification": "U",
            "LaunchYear": "16",
            "LaunchNumber": "021",
            "PieceOfLaunch": "A",
            "EpochYear": "24",
            "EpochDay": 338.90583572,
            "FirstDerivativeMeanMotion": -1.59e-06,
            "SecondDerivativeMeanMotion": "00000+0",
            "BSTAR": "00000+0",
            "SetNumber": "999",
            "Inclination": 59.428,
            "RAAN": 43.6454,
            "Eccentricity": 0.005531,
            "ArgumentOfPerigee": 225.6564,
            "MeanAnomaly": 226.7405,
            "MeanMotion": 1.00281914,
            "RevolutionNumber": "3186"
        },
        {
            "Name": "BEIDOU-2 G7 (C03)",
            "Line1": "1 41586U 16037A   24339.75475132 -.00000333  00000+0  00000+0 0  9994",
            "Line2": "2 41586   1.7875  67.2937 0007474 344.4596  44.5887  1.00273120 31179",
            "SatelliteNumber": "41586",
            "Classification": "U",
            "LaunchYear": "16",
            "LaunchNumber": "037",
            "PieceOfLaunch": "A",
            "EpochYear": "24",
            "EpochDay": 339.75475132,
            "FirstDerivativeMeanMotion": -3.33e-06,
            "SecondDerivativeMeanMotion": "00000+0",
            "BSTAR": "00000+0",
            "SetNumber": "999",
            "Inclination": 1.7875,
            "RAAN": 67.2937,
            "Eccentricity": 0.0007474,
            "ArgumentOfPerigee": 344.4596,
            "MeanAnomaly": 44.5887,
            "MeanMotion": 1.0027312,
            "RevolutionNumber": "3117"
        },
        {
            "Name": "BEIDOU-3 M1 (C19)",
            "Line1": "1 43001U 17069A   24339.62652125 -.00000003  00000+0  00000+0 0  9993",
            "Line2": "2 43001  56.2039  81.5933 0008633 296.2664  63.6469  1.86231141 48181",
            "SatelliteNumber": "43001",
            "Classification": "U",
            "LaunchYear": "17",
            "LaunchNumber": "069",
            "PieceOfLaunch": "A",
            "EpochYear": "24",
            "EpochDay": 339.62652125,
            "FirstDerivativeMeanMotion": -3e-08,
            "SecondDerivativeMeanMotion": "00000+0",
            "BSTAR": "00000+0",
            "SetNumber": "999",
            "Inclination": 56.2039,
            "RAAN": 81.5933,
            "Eccentricity": 0.0008633,
            "ArgumentOfPerigee": 296.2664,
            "MeanAnomaly": 63.6469,
            "MeanMotion": 1.86231141,
            "RevolutionNumber": "4818"
        },
        {
            "Name": "BEIDOU-3 M2 (C20)",
            "Line1": "1 43002U 17069B   24339.56413078 -.00000003  00000+0  00000+0 0  9999",
            "Line2": "2 43002  56.2035  81.6308 0005990 325.2695  34.6930  1.86230862 48174",
            "SatelliteNumber": "43002",
            "Classification": "U",
            "LaunchYear": "17",
            "LaunchNumber": "069",
            "PieceOfLaunch": "B",
            "EpochYear": "24",
            "EpochDay": 339.56413078,
            "FirstDerivativeMeanMotion": -3e-08,
            "SecondDerivativeMeanMotion": "00000+0",
            "BSTAR": "00000+0",
            "SetNumber": "999",
            "Inclination": 56.2035,
            "RAAN": 81.6308,
            "Eccentricity": 0.000599,
            "ArgumentOfPerigee": 325.2695,
            "MeanAnomaly": 34.693,
            "MeanMotion": 1.86230862,
            "RevolutionNumber": "4817"
        },
        {
            "Name": "BEIDOU-3 M7 (C27)",
            "Line1": "1 43107U 18003A   24339.31166412 -.00000050  00000+0  00000+0 0  9996",
            "Line2": "2 43107  54.8093 321.7586 0002484  58.0806 301.9440  1.86232356 46921",
            "SatelliteNumber": "43107",
            "Classification": "U",
            "LaunchYear": "18",
            "LaunchNumber": "003",
            "PieceOfLaunch": "A",
            "EpochYear": "24",
            "EpochDay": 339.31166412,
            "FirstDerivativeMeanMotion": -5e-07,
            "SecondDerivativeMeanMotion": "00000+0",
            "BSTAR": "00000+0",
            "SetNumber": "999",
            "Inclination": 54.8093,
            "RAAN": 321.7586,
            "Eccentricity": 0.0002484,
            "ArgumentOfPerigee": 58.0806,
            "MeanAnomaly": 301.944,
            "MeanMotion": 1.86232356,
            "RevolutionNumber": "4692"
        }
    ]
}